NORAD_CAT_ID,OBJECT_NAME,OBJECT_TYPE,EPOCH,MEAN_MOTION,ECCENTRICITY,INCLINATION,RA_OF_ASC_NODE,ARG_OF_PERICENTER,MEAN_ANOMALY,BSTAR,MEAN_MOTION_DOT,MEAN_MOTION_DDOT,TLE_LINE0,TLE_LINE1,TLE_LINE2,SEMIMAJOR_AXIS,PERIOD,APOGEE,PERIGEE,DECAYED
53607.0,STARLINK-4591,PAYLOAD,2023-03-24 07:35:08,15.08874441,0.0001209,53.216,53.6436,90.9107,269.2024,0.00081253,0.00012679,0.0,0 STARLINK-4591,1 53607U 22104V   23083.31607309  .00012679  00000-0  81253-3 0  9992,2 53607  53.2160  53.6436 0001209  90.9107 269.2024 15.08874441 31747,6917.775,95.435,540.476,538.804,0.0
53607.0,STARLINK-4591,PAYLOAD,2023-03-24 15:32:05,15.08838423,0.0001141,53.2156,52.1592,70.5615,289.55,0.00016644,2.362e-05,0.0,0 STARLINK-4591,1 53607U 22104V   23083.64728343  .00002362  00000-0  16644-3 0  9990,2 53607  53.2156  52.1592 0001141  70.5615 289.5500 15.08838423 31791,6917.885,95.438,540.54,538.961,0.0
53607.0,STARLINK-4591,PAYLOAD,2023-03-25 04:15:10,15.08832576,0.0001213,53.2162,49.7778,107.969,252.1435,-1.7992e-05,-5.74e-06,0.0,0 STARLINK-4591,1 53607U 22104V   23084.17720973 -.00000574  00000-0 -17992-4 0  9993,2 53607  53.2162  49.7778 0001213 107.9690 252.1435 15.08832576 31879,6917.903,95.438,540.607,538.929,0.0
53607.0,STARLINK-4591,PAYLOAD,2023-03-25 07:25:57,15.08838302,0.0001199,53.2162,49.1839,103.7604,256.3522,0.00012836,1.755e-05,0.0,0 STARLINK-4591,1 53607U 22104V   23084.30968890  .00001755  00000-0  12836-3 0  9991,2 53607  53.2162  49.1839 0001199 103.7604 256.3522 15.08838302 32588,6917.886,95.438,540.58,538.921,0.0
53607.0,STARLINK-4591,PAYLOAD,2023-03-26 04:05:57,15.08850213,0.0001086,53.2163,45.3182,116.4951,243.6153,0.00049929,7.669e-05,0.0,0 STARLINK-4591,1 53607U 22104V   23085.17080758  .00007669  00000-0  49929-3 0  9998,2 53607  53.2163  45.3182 0001086 116.4951 243.6153 15.08850213 32022,6917.849,95.437,540.465,538.963,0.0
53607.0,STARLINK-4591,PAYLOAD,2023-03-26 07:16:44,15.08854669,0.000134,53.2165,44.7231,114.5241,245.5891,0.00077618,0.00012091,0.0,0 STARLINK-4591,1 53607U 22104V   23085.30328791  .00012091  00000-0  77618-3 0  9996,2 53607  53.2165  44.7231 0001340 114.5241 245.5891 15.08854669 32733,6917.836,95.437,540.628,538.774,0.0
53607.0,STARLINK-4591,PAYLOAD,2023-03-27 03:56:44,15.08851178,0.0001102,53.2165,40.8564,109.6477,250.4634,0.00056818,8.769e-05,0.0,0 STARLINK-4591,1 53607U 22104V   23086.16440879  .00008769  00000-0  56818-3 0  9999,2 53607  53.2165  40.8564 0001102 109.6477 250.4634 15.08851178 32171,6917.846,95.437,540.474,538.949,0.0
53607.0,STARLINK-4591,PAYLOAD,2023-03-27 07:07:31,15.08853911,0.0001099,53.2164,40.262,111.2328,248.8782,0.00068661,0.0001066,0.0,0 STARLINK-4591,1 53607U 22104V   23086.29688797  .00010660  00000-0  68661-3 0  9998,2 53607  53.2164  40.2620 0001099 111.2328 248.8782 15.08853911 32886,6917.838,95.437,540.463,538.943,0.0
53607.0,STARLINK-4591,PAYLOAD,2023-03-28 05:22:54,15.08851734,0.0001313,53.2169,36.0998,114.4993,245.6136,0.00036985,5.605e-05,0.0,0 STARLINK-4591,1 53607U 22104V   23087.22424575  .00005605  00000-0  36985-3 0  9991,2 53607  53.2169  36.0998 0001313 114.4993 245.6136 15.08851734 32333,6917.845,95.437,540.618,538.801,0.0
53607.0,STARLINK-4591,PAYLOAD,2023-03-29 06:49:04,15.08859496,0.0001113,53.2161,31.3409,102.2492,257.8624,0.00045665,6.991e-05,0.0,0 STARLINK-4591,1 53607U 22104V   23088.28408145  .00006991  00000-0  45665-3 0  9997,2 53607  53.2161  31.3409 0001113 102.2492 257.8624 15.08859496 32494,6917.821,95.436,540.456,538.916,0.0
53607.0,STARLINK-4591,PAYLOAD,2023-03-30 01:53:42,15.08840842,0.0001244,53.2173,27.7754,106.8443,253.2685,4.0142e-05,3.51e-06,0.0,0 STARLINK-4591,1 53607U 22104V   23089.07896866  .00000351  00000-0  40142-4 0  9996,2 53607  53.2173  27.7754 0001244 106.8443 253.2685 15.08840842 32616,6917.878,95.438,540.603,538.882,0.0
53607.0,STARLINK-4591,PAYLOAD,2023-03-30 13:01:24,15.08841808,0.0001316,53.217,25.6921,72.9989,287.1147,0.00010157,1.329e-05,0.0,0 STARLINK-4591,1 53607U 22104V   23089.54265027  .00001329  00000-0  10157-3 0  9995,2 53607  53.2170  25.6921 0001316  72.9989 287.1147 15.08841808 33370,6917.875,95.437,540.65,538.829,0.0
53607.0,STARLINK-4591,PAYLOAD,2023-03-31 04:55:15,15.08858495,0.0001207,53.2168,22.7162,108.6242,251.4881,0.00044552,6.813e-05,0.0,0 STARLINK-4591,1 53607U 22104V   23090.20504177  .00006813  00000-0  44552-3 0  9991,2 53607  53.2168  22.7162 0001207 108.6242 251.4881 15.08858495 32783,6917.824,95.436,540.524,538.854,0.0
53607.0,STARLINK-4591,PAYLOAD,2023-03-31 19:13:45,15.08833707,0.0001107,53.2171,20.0429,84.8226,275.2893,0.000105,1.383e-05,0.0,0 STARLINK-4591,1 53607U 22104V   23090.80121703  .00001383  00000-0  10500-3 0  9990,2 53607  53.2171  20.0429 0001107  84.8226 275.2893 15.08833707 32876,6917.9,95.438,540.53,538.999,0.0
53607.0,STARLINK-4591,PAYLOAD,2023-04-01 04:46:03,15.08839532,0.0001293,53.2161,18.2567,100.7276,259.3862,0.00015476,2.176e-05,0.0,0 STARLINK-4591,1 53607U 22104V   23091.19865524  .00002176  00000-0  15476-3 0  9997,2 53607  53.2161  18.2567 0001293 100.7276 259.3862 15.08839532 33621,6917.882,95.438,540.641,538.852,0.0
53607.0,STARLINK-4591,PAYLOAD,2023-04-02 04:36:50,15.08853738,0.0001484,53.2163,13.7956,116.4113,243.7032,4.595e-05,4.44e-06,0.0,0 STARLINK-4591,1 53607U 22104V   23092.19224876  .00000444  00000-0  45950-4 0  9994,2 53607  53.2163  13.7956 0001484 116.4113 243.7032 15.08853738 33081,6917.838,95.437,540.73,538.677,0.0
53607.0,STARLINK-4591,PAYLOAD,2023-04-02 18:55:19,15.08834317,0.0001794,53.2166,11.1202,107.0898,253.0291,4.9357e-05,4.97e-06,0.0,0 STARLINK-4591,1 53607U 22104V   23092.78842124  .00000497  00000-0  49357-4 0  9994,2 53607  53.2166  11.1202 0001794 107.0898 253.0291 15.08834317 33173,6917.898,95.438,541.004,538.522,0.0
53607.0,STARLINK-4591,PAYLOAD,2023-04-02 22:06:05,15.08831718,0.0001587,53.2172,10.5249,121.0072,239.1076,-1.0437e-05,-4.54e-06,0.0,0 STARLINK-4591,1 53607U 22104V   23092.92090177 -.00000454  00000-0 -10437-4 0  9995,2 53607  53.2172  10.5249 0001587 121.0072 239.1076 15.08831718 33880,6917.906,95.438,540.869,538.673,0.0
53607.0,STARLINK-4591,PAYLOAD,2023-04-03 02:52:15,15.0883427,0.0001177,53.2177,9.6343,103.3363,256.776,6.7566e-05,7.87e-06,0.0,0 STARLINK-4591,1 53607U 22104V   23093.11962294  .00000787  00000-0  67566-4 0  9997,2 53607  53.2177   9.6343 0001177 103.3363 256.7760 15.08834270 33915,6917.898,95.438,540.577,538.949,0.0
53607.0,STARLINK-4591,PAYLOAD,2023-04-04 04:18:25,15.08868716,0.000103,53.218,4.8782,104.8152,255.2955,0.0011015,0.000173,0.0,0 STARLINK-4591,1 53607U 22104V   23094.17945603  .00017300  00000-0  11015-2 0  9994,2 53607  53.2180   4.8782 0001030 104.8152 255.2955 15.08868716 33386,6917.793,95.436,540.37,538.945,0.0
53607.0,STARLINK-4591,PAYLOAD,2023-04-04 21:47:39,15.08853044,0.0001032,53.2184,1.6088,96.4857,263.6252,0.00028329,4.225e-05,0.0,0 STARLINK-4591,1 53607U 22104V   23094.90809621  .00004225  00000-0  28329-3 0  9993,2 53607  53.2184   1.6088 0001032  96.4857 263.6252 15.08853044 34184,6917.841,95.437,540.419,538.992,0.0
53607.0,STARLINK-4591,PAYLOAD,2023-04-05 02:33:48,15.08854284,9.35e-05,53.2179,0.7137,85.9154,274.1945,0.00040733,6.203e-05,0.0,0 STARLINK-4591,1 53607U 22104V   23095.10681484  .00006203  00000-0  40733-3 0  9992,2 53607  53.2179   0.7137 0000935  85.9154 274.1945 15.08854284 33527,6917.837,95.437,540.349,539.055,0.0
53607.0,STARLINK-4591,PAYLOAD,2023-04-06 03:59:59,15.08847104,0.0001202,53.2168,355.9567,87.9482,272.1648,0.00061606,9.532e-05,0.0,0 STARLINK-4591,1 53607U 22104V   23096.16665669  .00009532  00000-0  61606-3 0  9996,2 53607  53.2168 355.9567 0001202  87.9482 272.1648 15.08847104 33689,6917.859,95.437,540.555,538.892,0.0
53607.0,STARLINK-4591,PAYLOAD,2023-04-07 02:15:23,15.08845446,0.0001077,53.2165,351.7921,95.8557,264.2558,0.00026149,3.877e-05,0.0,0 STARLINK-4591,1 53607U 22104V   23097.09401622  .00003877  00000-0  26149-3 0  9995,2 53607  53.2165 351.7921 0001077  95.8557 264.2558 15.08845446 33820,6917.864,95.437,540.474,538.984,0.0
53607.0,STARLINK-4591,PAYLOAD,2023-04-07 16:33:51,15.08841963,0.0001144,53.2155,349.1174,90.7644,269.3479,0.00011803,1.591e-05,0.0,0 STARLINK-4591,1 53607U 22104V   23097.69017852  .00001591  00000-0  11803-3 0  9991,2 53607  53.2155 349.1174 0001144  90.7644 269.3479 15.08841963 33914,6917.874,95.437,540.531,538.948,0.0
53607.0,STARLINK-4591,PAYLOAD,2023-04-08 02:06:10,15.08844204,0.0001134,53.216,347.3327,90.5631,269.5491,0.00025148,3.717e-05,0.0,0 STARLINK-4591,1 53607U 22104V   23098.08761884  .00003717  00000-0  25148-3 0  9995,2 53607  53.2160 347.3327 0001134  90.5631 269.5491 15.08844204 34663,6917.868,95.437,540.517,538.948,0.0
53607.0,STARLINK-4591,PAYLOAD,2023-04-09 01:56:57,15.08842534,0.0001216,53.2162,342.872,90.9296,269.1835,0.00026621,3.952e-05,0.0,0 STARLINK-4591,1 53607U 22104V   23099.08122329  .00003952  00000-0  26621-3 0  9999,2 53607  53.2162 342.8720 0001216  90.9296 269.1835 15.08842534 34127,6917.873,95.437,540.579,538.896,0.0
53607.0,STARLINK-4591,PAYLOAD,2023-04-09 22:36:58,15.08848299,0.0001381,53.2151,339.0059,94.6467,265.4683,0.00027966,4.167e-05,0.0,0 STARLINK-4591,1 53607U 22104V   23099.94234255  .00004167  00000-0  27966-3 0  9998,2 53607  53.2151 339.0059 0001381  94.6467 265.4683 15.08848299 34946,6917.855,95.437,540.675,538.765,0.0
53607.0,STARLINK-4591,PAYLOAD,2023-04-10 01:47:44,15.08849029,0.0001285,53.2166,338.4106,95.8322,264.2816,0.00028108,4.189e-05,0.0,0 STARLINK-4591,1 53607U 22104V   23100.07482209  .00004189  00000-0  28108-3 0  9992,2 53607  53.2166 338.4106 0001285  95.8322 264.2816 15.08849029 34963,6917.853,95.437,540.607,538.829,0.0
53607.0,STARLINK-4591,PAYLOAD,2023-04-10 16:06:12,15.08846084,0.0001236,53.2154,335.7346,94.3615,265.7518,0.00015755,2.221e-05,0.0,0 STARLINK-4591,1 53607U 22104V   23100.67098274  .00002221  00000-0  15755-3 0  9992,2 53607  53.2154 335.7346 0001236  94.3615 265.7518 15.08846084 34368,6917.862,95.437,540.582,538.872,0.0
